GPS BIIR-2  (PRN 13)    
1 24876U 97035A   20049.78112779 -.00000001  00000-0  00000-0 0  9990
2 24876  55.4564 188.8264 0039689  64.7841 295.5850  2.00564779165613
GPS BIIR-3  (PRN 11)    
1 25933U 99055A   20049.36768118 -.00000074  00000-0  00000-0 0  9997
2 25933  52.2568  35.1838 0156033 113.8880 250.6902  2.00657458149237
GPS BIIR-4  (PRN 20)    
1 26360U 00025A   20050.31021618 -.00000049  00000-0  00000+0 0  9996
2 26360  53.4598 114.1331 0049368 151.1402 208.5513  2.00568514144937
GPS BIIR-5  (PRN 28)    
1 26407U 00040A   20050.16171088 -.00000043  00000-0  00000-0 0  9990
2 26407  56.0823 306.8749 0189179 278.8307 298.1904  2.00564572143611
GPS BIIR-6  (PRN 14)    
1 26605U 00071A   20049.97320095 -.00000010  00000-0  00000-0 0  9999
2 26605  55.0324 186.1679 0111750 249.8340 105.0402  2.00570104141202
GPS BIIR-8  (PRN 16)    
1 27663U 03005A   20050.43118968 -.00000041  00000-0  00000+0 0  9994
2 27663  56.1393 306.6470 0112900  33.5418 144.9001  2.00558898124973
GPS BIIR-9  (PRN 21)    
1 27704U 03010A   20047.74022789 -.00000048  00000-0  00000-0 0  9999
2 27704  54.5406  57.9770 0250571 281.8065  78.6078  2.00576720123732
GPS BIIR-10 (PRN 22)    
1 28129U 03058A   20049.47661635 -.00000055  00000-0  00000-0 0  9992
2 28129  53.2702 116.9063 0073175 289.3525  69.9063  2.00575258118441
GPS BIIR-11 (PRN 19)    
1 28190U 04009A   20049.47133507 -.00000097  00000-0  00000-0 0  9995
2 28190  56.2832   7.4658 0089621  89.3551 268.7689  2.00564068116639
GPS BIIR-12 (PRN 23)    
1 28361U 04023A   20050.52185556 -.00000028  00000-0  00000-0 0  9994
2 28361  54.0581 180.2596 0136745 234.7683  72.4594  2.00564233114715
GPS BIIR-13 (PRN 02)    
1 28474U 04045A   20050.07068406 -.00000043  00000-0  00000-0 0  9994
2 28474  54.8918  57.7224 0200058 264.9970  83.0853  2.00567837112099
GPS BIIRM-1 (PRN 17)    
1 28874U 05038A   20048.70113413 -.00000096  00000-0  00000-0 0  9995
2 28874  56.3924   4.8726 0136223 265.3594 277.3387  2.00566520105478
GPS BIIRM-2 (PRN 31)    
1 29486U 06042A   20048.82426181  .00000073  00000-0  00000+0 0  9996
2 29486  54.9037 243.2031 0096292   5.4943 183.8324  2.00550677 98184
GPS BIIRM-3 (PRN 12)    
1 29601U 06052A   20047.50627550 -.00000052  00000-0  00000-0 0  9992
2 29601  56.1262 305.6808 0077674  62.7444 298.0894  2.00555250 97022
GPS BIIRM-4 (PRN 15)    
1 32260U 07047A   20050.30615513 -.00000033  00000-0  00000-0 0  9999
2 32260  53.1814 175.7265 0120079  48.9232 312.0665  2.00567033 90522
GPS BIIRM-5 (PRN 29)    
1 32384U 07062A   20050.37518420 -.00000102  00000-0  00000+0 0  9995
2 32384  56.4844   5.4710 0008892 113.4955  65.5185  2.00569767 89240
GPS BIIRM-6 (PRN 07)    
1 32711U 08012A   20049.22857194  .00000071  00000-0  00000+0 0  9995
2 32711  54.6473 242.3186 0134850 222.2559 136.7175  2.00560934 87407
GPS BIIRM-8 (PRN 05)    
1 35752U 09043A   20048.68900833 -.00000056  00000-0  00000+0 0  9990
2 35752  54.5321 119.9353 0055993  43.8277 317.5035  2.00571757 76974
GPS BIIF-1  (PRN 25)    
1 36585U 10022A   20050.28080420 -.00000030  00000-0  00000-0 0  9997
2 36585  55.3991 301.6928 0089280  50.6706 124.1797  2.00573407 71266
GPS BIIF-2  (PRN 01)    
1 37753U 11036A   20050.41950007 -.00000035  00000-0  00000+0 0  9997
2 37753  56.0938  61.9633 0092440  42.0926 320.6366  2.00568461 62947
GPS BIIF-3  (PRN 24)    
1 38833U 12053A   20049.41073100  .00000067  00000-0  00000+0 0  9999
2 38833  53.6878 238.2734 0094048  36.6628 323.9911  2.00564440 53987
GPS BIIF-4  (PRN 27)    
1 39166U 13023A   20050.26409259 -.00000104  00000-0  00000-0 0  9994
2 39166  56.0610   1.5009 0077888  27.6278 332.7723  2.00565634 49551
GPS BIIF-5  (PRN 30)    
1 39533U 14008A   20047.27684740  .00000068  00000-0  00000+0 0  9990
2 39533  53.8089 243.7840 0043094 194.8552 165.0380  2.00561394 43842
GPS BIIF-6  (PRN 06)    
1 39741U 14026A   20049.54897594 -.00000037  00000-0  00000+0 0  9993
2 39741  56.0687  61.5247 0021182 292.5165  67.3028  2.00554571 42176
GPS BIIF-7  (PRN 09)    
1 40105U 14045A   20048.13666281  .00000008  00000-0  00000-0 0  9999
2 40105  54.5842 180.7941 0015191 103.4114 256.7242  2.00549912 39733
GPS BIIF-8  (PRN 03)    
1 40294U 14068A   20048.51273781 -.00000055  00000-0  00000+0 0  9996
2 40294  55.2829 121.6909 0024785  37.7916 322.4246  2.00570655 38823
GPS BIIF-9  (PRN 26)    
1 40534U 15013A   20049.64863772 -.00000031  00000-0  00000+0 0  9998
2 40534  54.3187 299.8003 0046192   7.7570 352.3673  2.00575646 35917
GPS BIIF-10 (PRN 08)    
1 40730U 15033A   20048.30795747 -.00000098  00000-0  00000-0 0  9990
2 40730  55.5806   0.8060 0052336 347.6310  12.2343  2.00569231 33641
GPS BIIF-11 (PRN 10)    
1 41019U 15062A   20050.35326278 -.00000049  00000-0  00000+0 0  9995
2 41019  55.2823 121.4404 0055206 209.0820 150.6560  2.00564528 31501
GPS BIIF-12 (PRN 32)    
1 41328U 16007A   20049.94500862 -.00000019  00000-0  00000-0 0  9992
2 41328  54.8221 181.1767 0037261 218.3845 141.3100  2.00562142 29556
GPS BIII-1  (PRN 04)    
1 43873U 18109A   20050.55185420 -.00000022  00000-0  00000-0 0  9996
2 43873  55.0031 183.3981 0006755 222.1124 108.6695  2.00558135  8788
